[{"OBJECT_NAME":"STARLINK-1719","OBJECT_ID":"2020-062G","EPOCH":"2026-03-09T22:21:04.372704","MEAN_MOTION":15.58072136,"ECCENTRICITY":0.00034268,"INCLINATION":53.0447,"RA_OF_ASC_NODE":337.6114,"ARG_OF_PERICENTER":279.2031,"MEAN_ANOMALY":80.8593,"EPHEMERIS_TYPE":0,"CLASSIFICATION_TYPE":"U","NORAD_CAT_ID":46331,"ELEMENT_SET_NO":999,"REV_AT_EPOCH":30488,"BSTAR":0.0013818203,"MEAN_MOTION_DOT":0.00106661,"MEAN_MOTION_DDOT":0},{"OBJECT_NAME":"OBJECT C","OBJECT_ID":"2024-024C","EPOCH":"2026-03-09T23:05:51.559584","MEAN_MOTION":15.59218925,"ECCENTRICITY":0.00024071,"INCLINATION":97.3212,"RA_OF_ASC_NODE":154.3938,"ARG_OF_PERICENTER":211.7336,"MEAN_ANOMALY":148.3776,"EPHEMERIS_TYPE":0,"CLASSIFICATION_TYPE":"U","NORAD_CAT_ID":58919,"ELEMENT_SET_NO":999,"REV_AT_EPOCH":11733,"BSTAR":0.0012034335,"MEAN_MOTION_DOT":0.00095223,"MEAN_MOTION_DDOT":0}]
